1 29155U 06018A   11302.31101128 -.00000263  00000-0  10000-3 0  7962
2 29155 000.1961 079.5224 0000725 019.4371 335.6238 01.00275773 19922